KUIPER-00141            
1 65966U 25228V   25309.93742842  .00016313  00000+0  48550-3 0  9997
2 65966  51.8791 197.8864 0005555 218.3381 141.7210 15.34842265  4767
KUIPER-00146            
1 65967U 25228W   25309.93793382  .00018421  00000+0  54714-3 0  9994
2 65967  51.8802 197.8978 0005519 220.3542 139.7035 15.34813583  4762
KUIPER-00149            
1 65968U 25228X   25309.93520330  .00016419  00000+0  48629-3 0  9999
2 65968  51.8792 197.8744 0005450 216.7203 143.3410 15.34990344  4768
KUIPER-00154            
1 65969U 25228Y   25309.93417779  .00021852  00000+0  64161-3 0  9998
2 65969  51.8792 197.8677 0005682 214.1557 145.9064 15.35061209  4768
KUIPER-00157            
1 65970U 25228Z   25309.94134074  .00017483  00000+0  52328-3 0  9992
2 65970  51.8804 197.9194 0005619 232.6729 127.3745 15.34608188  4767
STRIX-5                 
1 65971U 25229A   25309.66252447  .00005455  00000+0  41964-3 0  9998
2 65971  41.9275  84.6489 0038879  28.4038 331.8896 15.01751678  3335
ELECTRON R/B            
1 65972U 25229B   25309.79554198  .00005417  00000+0  41679-3 0  9992
2 65972  41.9276  83.9145 0038858  29.2461 331.0529 15.01753149  3334
ELECTRON KICK STAGE R/B 
1 65973U 25229C   25309.78305198  .00007383  00000+0  54900-3 0  9991
2 65973  41.9832  83.9422 0039943  29.2362 331.0689 15.02653357  3324
SDA_1664                
1 65974U 25230A   25309.96069063  .00000212  00000+0  17814-3 0  9999
2 65974  81.2995  58.7189 0003369  59.8482 300.3008 13.84696990  2913
SDA_1665                
1 65975U 25230B   25309.94966724  .00000220  00000+0  18270-3 0  9994
2 65975  81.3032  58.7158 0005016 101.8503 258.3217 13.85427339  2910
SDA_1666                
1 65976U 25230C   25309.88950778  .00000263  00000+0  22395-3 0  9990
2 65976  81.3003  58.7895 0003015  57.2531 302.8916 13.84625814  2906
SDA_1667                
1 65977U 25230D   25309.88572728  .00000276  00000+0  23439-3 0  9990
2 65977  81.2999  58.7834 0003910  70.4484 289.7095 13.84876765  2905
