CCSDS_OMM_VERS = 2.0
CREATION_DATE  = 
ORIGINATOR     = 

OBJECT_NAME    = KUIPER-00141
OBJECT_ID      = 2025-228V
CENTER_NAME    = EARTH
REF_FRAME      = TEME
TIME_SYSTEM    = UTC
MEAN_ELEMENT_THEORY = SGP/SGP4

EPOCH          = 2025-11-05T22:29:53.815488
MEAN_MOTION    = 15.34842265
ECCENTRICITY   = .00055559
INCLINATION    = 51.8791
RA_OF_ASC_NODE = 197.8864
ARG_OF_PERICENTER = 218.3381
MEAN_ANOMALY   = 141.7210

EPHEMERIS_TYPE = 0
CLASSIFICATION_TYPE = U
NORAD_CAT_ID   = 65966
ELEMENT_SET_NO = 999
REV_AT_EPOCH   = 476
BSTAR          = .4855005E-3
MEAN_MOTION_DOT = .16313E-3
MEAN_MOTION_DDOT = 0

CCSDS_OMM_VERS = 2.0
CREATION_DATE  = 
ORIGINATOR     = 

OBJECT_NAME    = KUIPER-00146
OBJECT_ID      = 2025-228W
CENTER_NAME    = EARTH
REF_FRAME      = TEME
TIME_SYSTEM    = UTC
MEAN_ELEMENT_THEORY = SGP/SGP4

EPOCH          = 2025-11-05T22:30:37.482048
MEAN_MOTION    = 15.34813583
ECCENTRICITY   = .00055195
INCLINATION    = 51.8802
RA_OF_ASC_NODE = 197.8978
ARG_OF_PERICENTER = 220.3542
MEAN_ANOMALY   = 139.7035

EPHEMERIS_TYPE = 0
CLASSIFICATION_TYPE = U
NORAD_CAT_ID   = 65967
ELEMENT_SET_NO = 999
REV_AT_EPOCH   = 476
BSTAR          = .54713542E-3
MEAN_MOTION_DOT = .18421E-3
MEAN_MOTION_DDOT = 0

CCSDS_OMM_VERS = 2.0
CREATION_DATE  = 
ORIGINATOR     = 

OBJECT_NAME    = KUIPER-00149
OBJECT_ID      = 2025-228X
CENTER_NAME    = EARTH
REF_FRAME      = TEME
TIME_SYSTEM    = UTC
MEAN_ELEMENT_THEORY = SGP/SGP4

EPOCH          = 2025-11-05T22:26:41.565120
MEAN_MOTION    = 15.34990344
ECCENTRICITY   = .00054505
INCLINATION    = 51.8792
RA_OF_ASC_NODE = 197.8744
ARG_OF_PERICENTER = 216.7203
MEAN_ANOMALY   = 143.3410

EPHEMERIS_TYPE = 0
CLASSIFICATION_TYPE = U
NORAD_CAT_ID   = 65968
ELEMENT_SET_NO = 999
REV_AT_EPOCH   = 476
BSTAR          = .48628915E-3
MEAN_MOTION_DOT = .16419E-3
MEAN_MOTION_DDOT = 0

CCSDS_OMM_VERS = 2.0
CREATION_DATE  = 
ORIGINATOR     = 

OBJECT_NAME    = KUIPER-00154
OBJECT_ID      = 2025-228Y
CENTER_NAME    = EARTH
REF_FRAME      = TEME
TIME_SYSTEM    = UTC
MEAN_ELEMENT_THEORY = SGP/SGP4

EPOCH          = 2025-11-05T22:25:12.961056
MEAN_MOTION    = 15.35061209
ECCENTRICITY   = .00056824
INCLINATION    = 51.8792
RA_OF_ASC_NODE = 197.8677
ARG_OF_PERICENTER = 214.1557
MEAN_ANOMALY   = 145.9064

EPHEMERIS_TYPE = 0
CLASSIFICATION_TYPE = U
NORAD_CAT_ID   = 65969
ELEMENT_SET_NO = 999
REV_AT_EPOCH   = 476
BSTAR          = .64160923E-3
MEAN_MOTION_DOT = .21852E-3
MEAN_MOTION_DDOT = 0

CCSDS_OMM_VERS = 2.0
CREATION_DATE  = 
ORIGINATOR     = 

OBJECT_NAME    = KUIPER-00157
OBJECT_ID      = 2025-228Z
CENTER_NAME    = EARTH
REF_FRAME      = TEME
TIME_SYSTEM    = UTC
MEAN_ELEMENT_THEORY = SGP/SGP4

EPOCH          = 2025-11-05T22:35:31.839936
MEAN_MOTION    = 15.34608188
ECCENTRICITY   = .00056191
INCLINATION    = 51.8804
RA_OF_ASC_NODE = 197.9194
ARG_OF_PERICENTER = 232.6729
MEAN_ANOMALY   = 127.3745

EPHEMERIS_TYPE = 0
CLASSIFICATION_TYPE = U
NORAD_CAT_ID   = 65970
ELEMENT_SET_NO = 999
REV_AT_EPOCH   = 476
BSTAR          = .52328225E-3
MEAN_MOTION_DOT = .17483E-3
MEAN_MOTION_DDOT = 0

CCSDS_OMM_VERS = 2.0
CREATION_DATE  = 
ORIGINATOR     = 

OBJECT_NAME    = STRIX-5
OBJECT_ID      = 2025-229A
CENTER_NAME    = EARTH
REF_FRAME      = TEME
TIME_SYSTEM    = UTC
MEAN_ELEMENT_THEORY = SGP/SGP4

EPOCH          = 2025-11-05T15:54:02.114208
MEAN_MOTION    = 15.01751678
ECCENTRICITY   = .00388793
INCLINATION    = 41.9275
RA_OF_ASC_NODE = 84.6489
ARG_OF_PERICENTER = 28.4038
MEAN_ANOMALY   = 331.8896

EPHEMERIS_TYPE = 0
CLASSIFICATION_TYPE = U
NORAD_CAT_ID   = 65971
ELEMENT_SET_NO = 999
REV_AT_EPOCH   = 333
BSTAR          = .41963645E-3
MEAN_MOTION_DOT = .5455E-4
MEAN_MOTION_DDOT = 0

CCSDS_OMM_VERS = 2.0
CREATION_DATE  = 
ORIGINATOR     = 

OBJECT_NAME    = ELECTRON R/B
OBJECT_ID      = 2025-229B
CENTER_NAME    = EARTH
REF_FRAME      = TEME
TIME_SYSTEM    = UTC
MEAN_ELEMENT_THEORY = SGP/SGP4

EPOCH          = 2025-11-05T19:05:34.827072
MEAN_MOTION    = 15.01753149
ECCENTRICITY   = .0038858
INCLINATION    = 41.9276
RA_OF_ASC_NODE = 83.9145
ARG_OF_PERICENTER = 29.2461
MEAN_ANOMALY   = 331.0529

EPHEMERIS_TYPE = 0
CLASSIFICATION_TYPE = U
NORAD_CAT_ID   = 65972
ELEMENT_SET_NO = 999
REV_AT_EPOCH   = 333
BSTAR          = .41678945E-3
MEAN_MOTION_DOT = .5417E-4
MEAN_MOTION_DDOT = 0

CCSDS_OMM_VERS = 2.0
CREATION_DATE  = 
ORIGINATOR     = 

OBJECT_NAME    = ELECTRON KICK STAGE R/B
OBJECT_ID      = 2025-229C
CENTER_NAME    = EARTH
REF_FRAME      = TEME
TIME_SYSTEM    = UTC
MEAN_ELEMENT_THEORY = SGP/SGP4

EPOCH          = 2025-11-05T18:47:35.691072
MEAN_MOTION    = 15.02653357
ECCENTRICITY   = .0039943
INCLINATION    = 41.9832
RA_OF_ASC_NODE = 83.9422
ARG_OF_PERICENTER = 29.2362
MEAN_ANOMALY   = 331.0689

EPHEMERIS_TYPE = 0
CLASSIFICATION_TYPE = U
NORAD_CAT_ID   = 65973
ELEMENT_SET_NO = 999
REV_AT_EPOCH   = 332
BSTAR          = .54900042E-3
MEAN_MOTION_DOT = .7383E-4
MEAN_MOTION_DDOT = 0

CCSDS_OMM_VERS = 2.0
CREATION_DATE  = 
ORIGINATOR     = 

OBJECT_NAME    = SDA_1664
OBJECT_ID      = 2025-230A
CENTER_NAME    = EARTH
REF_FRAME      = TEME
TIME_SYSTEM    = UTC
MEAN_ELEMENT_THEORY = SGP/SGP4

EPOCH          = 2025-11-05T23:03:23.670432
MEAN_MOTION    = 13.84696990
ECCENTRICITY   = .00033699
INCLINATION    = 81.2995
RA_OF_ASC_NODE = 58.7189
ARG_OF_PERICENTER = 59.8482
MEAN_ANOMALY   = 300.3008

EPHEMERIS_TYPE = 0
CLASSIFICATION_TYPE = U
NORAD_CAT_ID   = 65974
ELEMENT_SET_NO = 999
REV_AT_EPOCH   = 291
BSTAR          = .17813826E-3
MEAN_MOTION_DOT = .212E-5
MEAN_MOTION_DDOT = 0

CCSDS_OMM_VERS = 2.0
CREATION_DATE  = 
ORIGINATOR     = 

OBJECT_NAME    = SDA_1665
OBJECT_ID      = 2025-230B
CENTER_NAME    = EARTH
REF_FRAME      = TEME
TIME_SYSTEM    = UTC
MEAN_ELEMENT_THEORY = SGP/SGP4

EPOCH          = 2025-11-05T22:47:31.249536
MEAN_MOTION    = 13.85427339
ECCENTRICITY   = .0005016
INCLINATION    = 81.3032
RA_OF_ASC_NODE = 58.7158
ARG_OF_PERICENTER = 101.8503
MEAN_ANOMALY   = 258.3217

EPHEMERIS_TYPE = 0
CLASSIFICATION_TYPE = U
NORAD_CAT_ID   = 65975
ELEMENT_SET_NO = 999
REV_AT_EPOCH   = 291
BSTAR          = .18270396E-3
MEAN_MOTION_DOT = .22E-5
MEAN_MOTION_DDOT = 0

CCSDS_OMM_VERS = 2.0
CREATION_DATE  = 
ORIGINATOR     = 

OBJECT_NAME    = SDA_1666
OBJECT_ID      = 2025-230C
CENTER_NAME    = EARTH
REF_FRAME      = TEME
TIME_SYSTEM    = UTC
MEAN_ELEMENT_THEORY = SGP/SGP4

EPOCH          = 2025-11-05T21:20:53.472192
MEAN_MOTION    = 13.84625814
ECCENTRICITY   = .00030154
INCLINATION    = 81.3003
RA_OF_ASC_NODE = 58.7895
ARG_OF_PERICENTER = 57.2531
MEAN_ANOMALY   = 302.8916

EPHEMERIS_TYPE = 0
CLASSIFICATION_TYPE = U
NORAD_CAT_ID   = 65976
ELEMENT_SET_NO = 999
REV_AT_EPOCH   = 290
BSTAR          = .22394841E-3
MEAN_MOTION_DOT = .263E-5
MEAN_MOTION_DDOT = 0

CCSDS_OMM_VERS = 2.0
CREATION_DATE  = 
ORIGINATOR     = 

OBJECT_NAME    = SDA_1667
OBJECT_ID      = 2025-230D
CENTER_NAME    = EARTH
REF_FRAME      = TEME
TIME_SYSTEM    = UTC
MEAN_ELEMENT_THEORY = SGP/SGP4

EPOCH          = 2025-11-05T21:15:26.836992
MEAN_MOTION    = 13.84876765
ECCENTRICITY   = .00039106
INCLINATION    = 81.2999
RA_OF_ASC_NODE = 58.7834
ARG_OF_PERICENTER = 70.4484
MEAN_ANOMALY   = 289.7095

EPHEMERIS_TYPE = 0
CLASSIFICATION_TYPE = U
NORAD_CAT_ID   = 65977
ELEMENT_SET_NO = 999
REV_AT_EPOCH   = 290
BSTAR          = .23439127E-3
MEAN_MOTION_DOT = .276E-5
MEAN_MOTION_DDOT = 0

